{
    "links": {
        "self": "http://www.neowsapp.com/rest/v1/neo/3789742?api_key=iIulBulltgU6a56xZRHN4H3l9WmuAYTsLGpBGhQ2"
    },
    "id": "3789742",
    "neo_reference_id": "3789742",
    "name": "(2017 WX27)",
    "designation": "2017 WX27",
    "nasa_jpl_url": "http://ssd.jpl.nasa.gov/sbdb.cgi?sstr=3789742",
    "absolute_magnitude_h": 24.1,
    "estimated_diameter": {
        "kilometers": {
            "estimated_diameter_min": 0.040230458,
            "estimated_diameter_max": 0.0899580388
        },
        "meters": {
            "estimated_diameter_min": 40.2304579834,
            "estimated_diameter_max": 89.9580388169
        },
        "miles": {
            "estimated_diameter_min": 0.0249980399,
            "estimated_diameter_max": 0.0558973165
        },
        "feet": {
            "estimated_diameter_min": 131.9896957704,
            "estimated_diameter_max": 295.1379320721
        }
    },
    "is_potentially_hazardous_asteroid": false,
    "close_approach_data": [
        {
            "close_approach_date": "2017-11-19",
            "close_approach_date_full": "2017-Nov-19 19:27",
            "epoch_date_close_approach": 1511119620000,
            "relative_velocity": {
                "kilometers_per_second": "16.724220043",
                "kilometers_per_hour": "60207.1921547845",
                "miles_per_hour": "37410.4078141771"
            },
            "miss_distance": {
                "astronomical": "0.1117034355",
                "lunar": "43.4526364095",
                "kilometers": "16710596.022482385",
                "miles": "10383482.879871513"
            },
            "orbiting_body": "Earth"
        }
    ],
    "orbital_data": {
        "orbit_id": "2",
        "orbit_determination_date": "2017-12-08 06:19:48",
        "first_observation_date": "2017-11-26",
        "last_observation_date": "2017-12-08",
        "data_arc_in_days": 12,
        "observations_used": 34,
        "orbit_uncertainty": "8",
        "minimum_orbit_intersection": ".106786",
        "jupiter_tisserand_invariant": "3.886",
        "epoch_osculation": "2458084.5",
        "eccentricity": ".4299020524504989",
        "semi_major_axis": "1.768142805700406",
        "inclination": "26.38769218242333",
        "ascending_node_longitude": "241.8002522965462",
        "orbital_period": "858.7651945278824",
        "perihelion_distance": "1.008014584504218",
        "perihelion_argument": "134.1371786639261",
        "aphelion_distance": "2.528271026896595",
        "perihelion_time": "2458042.150895588625",
        "mean_anomaly": "17.75302222917466",
        "mean_motion": ".4192065564533211",
        "equinox": "J2000",
        "orbit_class": {
            "orbit_class_type": "APO",
            "orbit_class_description": "Near-Earth asteroid orbits which cross the Earth’s orbit similar to that of 1862 Apollo",
            "orbit_class_range": "a (semi-major axis) > 1.0 AU; q (perihelion) < 1.017 AU"
        }
    },
    "is_sentry_object": false
}